NORAD_CAT_ID,OBJECT_NAME,OBJECT_TYPE,EPOCH,MEAN_MOTION,ECCENTRICITY,INCLINATION,RA_OF_ASC_NODE,ARG_OF_PERICENTER,MEAN_ANOMALY,BSTAR,MEAN_MOTION_DOT,MEAN_MOTION_DDOT,TLE_LINE0,TLE_LINE1,TLE_LINE2,SEMIMAJOR_AXIS,PERIOD,APOGEE,PERIGEE,DECAYED
55744.0,STARLINK-5601,PAYLOAD,2024-03-24 20:53:51,14.9835081,0.0003138,70.0002,246.9082,272.8733,87.2067,0.00038839,4.547e-05,0.0,0 STARLINK-5601,1 55744U 23028D   24084.87073033  .00004547  00000-0  38839-3 0  9993,2 55744  70.0002 246.9082 0003138 272.8733  87.2067 14.98350810 58961,6950.129,96.106,574.174,569.813,0.0
55744.0,STARLINK-5601,PAYLOAD,2024-03-25 11:20:03,14.96232845,0.0008668,70.0012,245.3933,25.5333,334.6251,-0.058817,-0.00624519,0.0,0 STARLINK-5601,1 55744U 23028D   24085.47226555 -.00624519  00000-0 -58817-1 0  9994,2 55744  70.0012 245.3933 0008668  25.5333 334.6251 14.96232845 59052,6956.686,96.242,584.581,572.521,0.0
55744.0,STARLINK-5601,PAYLOAD,2024-03-25 20:00:01,14.98326048,0.0003143,70.0008,244.4806,272.7238,238.1844,-0.0014597,-0.00017465,0.0,0 STARLINK-5601,1 55744U 23028D   24085.83334491 -.00017465  00000-0 -14597-2 0  9997,2 55744  70.0008 244.4806 0003143 272.7238 238.1844 14.98326048 59102,6950.205,96.107,574.255,569.886,0.0
55744.0,STARLINK-5601,PAYLOAD,2024-03-25 22:00:00,14.9831236,0.0003129,70.0006,244.2705,273.5453,326.7364,0.00024986,2.888e-05,0.0,0 STARLINK-5601,1 55744U 23028D   24085.91667824  .00002888  00000-0  24986-3 0  9990,2 55744  70.0006 244.2705 0003129 273.5453 326.7364 14.98312360  5832,6950.247,96.108,574.287,569.938,0.0
55744.0,STARLINK-5601,PAYLOAD,2024-03-26 12:57:13,14.98325267,0.0002807,70.0012,242.7001,269.9189,90.1648,-0.00010647,-1.363e-05,0.0,0 STARLINK-5601,1 55744U 23028D   24086.53973870 -.00001363  00000-0 -10647-3 0  9998,2 55744  70.0012 242.7001 0002807 269.9189  90.1648 14.98325267 59216,6950.208,96.107,574.023,570.122,0.0
55744.0,STARLINK-5601,PAYLOAD,2024-03-26 14:33:21,14.98324269,0.0003144,70.0013,242.5317,275.7941,84.2859,-9.0535e-05,-1.173e-05,0.0,0 STARLINK-5601,1 55744U 23028D   24086.60649921 -.00001173  00000-0 -90535-4 0  9997,2 55744  70.0013 242.5317 0003144 275.7941  84.2859 14.98324269 59221,6950.211,96.107,574.261,569.89,0.0
55744.0,STARLINK-5601,PAYLOAD,2024-03-26 19:21:46,14.98323001,0.0002854,70.0018,242.027,263.8895,96.1938,-6.7675e-05,-9e-06,0.0,0 STARLINK-5601,1 55744U 23028D   24086.80678261 -.00000900  00000-0 -67675-4 0  9994,2 55744  70.0018 242.0270 0002854 263.8895  96.1938 14.98323001 59258,6950.215,96.107,574.063,570.096,0.0
55744.0,STARLINK-5601,PAYLOAD,2024-03-27 12:59:36,14.97882944,0.0003292,70.0009,240.1759,330.1746,29.9224,0.01824,0.00222012,0.0,0 STARLINK-5601,1 55744U 23028D   24087.54138991  .00222012  00000-0  18240-1 0  9996,2 55744  70.0009 240.1759 0003292 330.1746  29.9224 14.97882944 59368,6951.576,96.136,575.729,571.152,0.0
55744.0,STARLINK-5601,PAYLOAD,2024-03-27 19:23:47,14.9833384,0.000312,70.0014,239.5028,273.1134,86.9668,0.00044297,5.197e-05,0.0,0 STARLINK-5601,1 55744U 23028D   24087.80818632  .00005197  00000-0  44297-3 0  9998,2 55744  70.0014 239.5028 0003120 273.1134  86.9668 14.98333840 59409,6950.181,96.107,574.214,569.878,0.0
55744.0,STARLINK-5601,PAYLOAD,2024-03-28 13:01:15,14.98336683,0.000305,70.0014,237.6507,270.9823,89.0986,0.00035565,4.154e-05,0.0,0 STARLINK-5601,1 55744U 23028D   24088.54254511  .00004154  00000-0  35565-3 0  9990,2 55744  70.0014 237.6507 0003050 270.9823  89.0986 14.98336683 59519,6950.172,96.107,574.157,569.917,0.0
55744.0,STARLINK-5601,PAYLOAD,2024-03-29 13:03:16,14.98341081,0.0003038,70.002,235.1261,270.2823,89.7988,0.00024858,2.875e-05,0.0,0 STARLINK-5601,1 55744U 23028D   24089.54393976  .00002875  00000-0  24858-3 0  9991,2 55744  70.0020 235.1261 0003038 270.2823  89.7988 14.98341081 59668,6950.159,96.106,574.135,569.912,0.0
55744.0,STARLINK-5601,PAYLOAD,2024-03-29 19:27:48,14.98342521,0.0003072,70.0014,234.4533,270.8454,89.2353,0.00025649,2.97e-05,0.0,0 STARLINK-5601,1 55744U 23028D   24089.81097755  .00002970  00000-0  25649-3 0  9992,2 55744  70.0014 234.4533 0003072 270.8454  89.2353 14.98342521 59705,6950.154,96.106,574.154,569.884,0.0
55744.0,STARLINK-5601,PAYLOAD,2024-03-30 03:28:29,14.98331037,0.00029,70.0013,233.6102,273.9988,86.0839,0.00016321,1.855e-05,0.0,0 STARLINK-5601,1 55744U 23028D   24090.14478259  .00001855  00000-0  16321-3 0  9990,2 55744  70.0013 233.6102 0002900 273.9988  86.0839 14.98331037 59751,6950.19,96.107,574.07,570.039,0.0
55744.0,STARLINK-5601,PAYLOAD,2024-03-30 13:05:17,14.98330315,0.0002934,70.0003,232.6009,270.0923,89.99,-2.2088e-06,-1.19e-06,0.0,0 STARLINK-5601,1 55744U 23028D   24090.54534477 -.00000119  00000-0 -22088-5 0  9992,2 55744  70.0003 232.6009 0002934 270.0923  89.9900 14.98330315 59815,6950.192,96.107,574.096,570.018,0.0
55744.0,STARLINK-5601,PAYLOAD,2024-03-30 16:17:33,14.98333149,0.0002734,69.9998,232.264,266.6159,93.4687,5.7969e-06,-2.4e-07,0.0,0 STARLINK-5601,1 55744U 23028D   24090.67886235 -.00000024  00000-0  57969-5 0  9998,2 55744  69.9998 232.2640 0002734 266.6159  93.4687 14.98333149 59834,6950.183,96.107,573.948,570.148,0.0
55744.0,STARLINK-5601,PAYLOAD,2024-03-31 13:07:18,14.98335735,0.0002717,70.0003,230.076,270.9959,89.0888,7.4108e-05,7.92e-06,0.0,0 STARLINK-5601,1 55744U 23028D   24091.54673773  .00000792  00000-0  74108-4 0  9990,2 55744  70.0003 230.0760 0002717 270.9959  89.0888 14.98335735 59961,6950.175,96.107,573.929,570.152,0.0
55744.0,STARLINK-5601,PAYLOAD,2024-03-31 14:43:26,14.98319308,0.0002605,70.0004,229.9077,268.7683,91.3177,0.00039583,4.632e-05,0.0,0 STARLINK-5601,1 55744U 23028D   24091.61350080  .00004632  00000-0  39583-3 0  9995,2 55744  70.0004 229.9077 0002605 268.7683  91.3177 14.98319308 59971,6950.226,96.108,573.901,570.28,0.0
55744.0,STARLINK-5601,PAYLOAD,2024-03-31 19:31:50,14.98335488,0.0002518,70.0008,229.4034,261.1422,98.9452,0.00011975,1.336e-05,0.0,0 STARLINK-5601,1 55744U 23028D   24091.81377607  .00001336  00000-0  11975-3 0  9994,2 55744  70.0008 229.4034 0002518 261.1422  98.9452 14.98335488 60006,6950.176,96.107,573.791,570.291,0.0
55744.0,STARLINK-5601,PAYLOAD,2024-04-01 11:33:11,14.9832386,0.0002794,70.0009,227.7204,269.5774,90.5064,2.2083e-05,1.71e-06,0.0,0 STARLINK-5601,1 55744U 23028D   24092.48138586  .00000171  00000-0  22083-4 0  9998,2 55744  70.0009 227.7204 0002794 269.5774  90.5064 14.98323860 60104,6950.212,96.107,574.019,570.135,0.0
55744.0,STARLINK-5601,PAYLOAD,2024-04-01 13:09:19,14.98323635,0.0002797,70.0008,227.5521,269.5622,90.5217,1.7636e-05,1.17e-06,0.0,0 STARLINK-5601,1 55744U 23028D   24092.54814627  .00000117  00000-0  17636-4 0  9990,2 55744  70.0008 227.5521 0002797 269.5622  90.5217 14.98323635 60119,6950.213,96.107,574.022,570.134,0.0
55744.0,STARLINK-5601,PAYLOAD,2024-04-02 11:35:12,14.98334547,0.0002847,70.0008,225.196,268.4783,91.605,3.7423e-05,3.54e-06,0.0,0 STARLINK-5601,1 55744U 23028D   24093.48277970  .00000354  00000-0  37423-4 0  9997,2 55744  70.0008 225.1960 0002847 268.4783  91.6050 14.98334547 60258,6950.179,96.107,574.023,570.065,0.0
55744.0,STARLINK-5601,PAYLOAD,2024-04-02 14:47:28,14.9833485,0.0002834,70.001,224.8593,268.7746,91.3088,3.8387e-05,3.65e-06,0.0,0 STARLINK-5601,1 55744U 23028D   24093.61629927  .00000365  00000-0  38387-4 0  9997,2 55744  70.0010 224.8593 0002834 268.7746  91.3088 14.98334850 60274,6950.178,96.107,574.013,570.073,0.0
55744.0,STARLINK-5601,PAYLOAD,2024-04-02 17:59:44,14.98335172,0.0002802,70.0011,224.5228,268.9634,91.1204,3.4961e-05,3.24e-06,0.0,0 STARLINK-5601,1 55744U 23028D   24093.74981881  .00000324  00000-0  34961-4 0  9990,2 55744  70.0011 224.5228 0002802 268.9634  91.1204 14.98335172 60298,6950.177,96.107,573.989,570.094,0.0
55744.0,STARLINK-5601,PAYLOAD,2024-04-03 11:37:13,14.98327536,0.0002883,70.001,222.671,269.4828,90.6,0.0001223,1.366e-05,0.0,0 STARLINK-5601,1 55744U 23028D   24094.48418099  .00001366  00000-0  12230-3 0  9999,2 55744  70.0010 222.6710 0002883 269.4828  90.6000 14.98327536 60408,6950.201,96.107,574.069,570.062,0.0
55744.0,STARLINK-5601,PAYLOAD,2024-04-03 14:49:29,14.98330674,0.0002904,70.0009,222.3344,269.2891,90.7936,0.00011828,1.319e-05,0.0,0 STARLINK-5601,1 55744U 23028D   24094.61769916  .00001319  00000-0  11828-3 0  9991,2 55744  70.0009 222.3344 0002904 269.2891  90.7936 14.98330674 60426,6950.191,96.107,574.074,570.037,0.0
55744.0,STARLINK-5601,PAYLOAD,2024-04-03 18:01:45,14.98329376,0.0002968,70.0007,221.9976,269.385,90.6969,9.3328e-05,1.021e-05,0.0,0 STARLINK-5601,1 55744U 23028D   24094.75122046  .00001021  00000-0  93328-4 0  9999,2 55744  70.0007 221.9976 0002968 269.3850  90.6969 14.98329376 60440,6950.195,96.107,574.123,569.997,0.0
55744.0,STARLINK-5601,PAYLOAD,2024-04-04 13:15:22,14.98328347,0.0003067,70.0004,219.9775,270.8088,89.272,3.9859e-05,3.83e-06,0.0,0 STARLINK-5601,1 55744U 23028D   24095.55234147  .00000383  00000-0  39859-4 0  9993,2 55744  70.0004 219.9775 0003067 270.8088  89.2720 14.98328347 60561,6950.198,96.107,574.195,569.931,0.0
55744.0,STARLINK-5601,PAYLOAD,2024-04-04 14:51:30,14.9833341,0.0003239,70.0002,219.8102,270.806,89.2728,1.2648e-05,5.8e-07,0.0,0 STARLINK-5601,1 55744U 23028D   24095.61909858  .00000058  00000-0  12648-4 0  9994,2 55744  70.0002 219.8102 0003239 270.8060  89.2728 14.98333410 60579,6950.182,96.107,574.299,569.796,0.0
55744.0,STARLINK-5601,PAYLOAD,2024-04-04 18:03:46,14.98334644,0.0003139,70.0005,219.4738,270.2591,89.8208,2.9895e-05,2.64e-06,0.0,0 STARLINK-5601,1 55744U 23028D   24095.75261709  .00000264  00000-0  29895-4 0  9996,2 55744  70.0005 219.4738 0003139 270.2591  89.8208 14.98334644 60596,6950.179,96.107,574.225,569.862,0.0
55744.0,STARLINK-5601,PAYLOAD,2024-04-05 11:41:14,14.98333062,0.0003083,70.0005,217.6211,269.0556,91.0249,7.7106e-05,8.27e-06,0.0,0 STARLINK-5601,1 55744U 23028D   24096.48697522  .00000827  00000-0  77106-4 0  9996,2 55744  70.0005 217.6211 0003083 269.0556  91.0249 14.98333062 60703,6950.183,96.107,574.191,569.906,0.0
